MALLIGYONG-1            
1 58400U 23179A   23353.43756433  .00008220  00000+0  36683-3 0  9990
2 58400  97.4257 237.8465 0015686 174.5008 185.6403 15.21525054  4235
